start=new Date('2021-12-22T00:00:00.000Z').valueOf();
sats=[{"CLASSIFICATION_TYPE":"U","FILE":"3246784","SEMIMAJOR_AXIS":"6925.287","ECCENTRICITY":"0.00022500","COUNTRY_CODE":"US","ARG_OF_PERICENTER":"93.4684","GP_ID":"192178390","EPOCH":"2021-12-21T19:15:54.361728","MEAN_ELEMENT_THEORY":"SGP4","TLE_LINE2":"2 48303  53.0547 159.9373 0002250  93.4684 266.6562 15.06420132 36224","SITE":"AFETR","MEAN_ANOMALY":"266.6562","EPHEMERIS_TYPE":"0","ELEMENT_SET_NO":"999","NORAD_CAT_ID":"48303","PERIAPSIS":"545.594","OBJECT_ID":"2021-036AD","MEAN_MOTION":"15.06420132","MEAN_MOTION_DDOT":"0.0000000000000","PERIOD":"95.591","TLE_LINE1":"1 48303U 21036AD  21355.80271252  .00001216  00000-0  10048-3 0  9999","OBJECT_TYPE":"PAYLOAD","REF_FRAME":"TEME","DECAY_DATE":null,"OBJECT_NAME":"STARLINK-2530","REV_AT_EPOCH":"3622","RA_OF_ASC_NODE":"159.9373","CENTER_NAME":"EARTH","RCS_SIZE":"LARGE","MEAN_MOTION_DOT":"0.00001216","APOAPSIS":"548.710","TIME_SYSTEM":"UTC","LAUNCH_DATE":"2021-04-29","BSTAR":"0.00010048000000","INCLINATION":"53.0547"},{"FILE":"3246784","SEMIMAJOR_AXIS":"6925.331","CLASSIFICATION_TYPE":"U","ECCENTRICITY":"0.00027980","COUNTRY_CODE":"US","MEAN_ELEMENT_THEORY":"SGP4","EPOCH":"2021-12-21T20:46:08.584032","ARG_OF_PERICENTER":"89.2943","GP_ID":"192179139","MEAN_ANOMALY":"270.8366","TLE_LINE2":"2 48304  53.0547 159.6681 0002798  89.2943 270.8366 15.06405811 36239","SITE":"AFETR","ELEMENT_SET_NO":"999","EPHEMERIS_TYPE":"0","OBJECT_ID":"2021-036AE","MEAN_MOTION":"15.06405811","NORAD_CAT_ID":"48304","PERIAPSIS":"545.258","TLE_LINE1":"1 48304U 21036AE  21355.86537713  .00001549  00000-0  12288-3 0  9990","MEAN_MOTION_DDOT":"0.0000000000000","PERIOD":"95.592","OBJECT_TYPE":"PAYLOAD","REF_FRAME":"TEME","DECAY_DATE":null,"OBJECT_NAME":"STARLINK-2524","REV_AT_EPOCH":"3623","RCS_SIZE":"LARGE","RA_OF_ASC_NODE":"159.6681","CENTER_NAME":"EARTH","APOAPSIS":"549.133","MEAN_MOTION_DOT":"0.00001549","BSTAR":"0.00012288000000","INCLINATION":"53.0547","TIME_SYSTEM":"UTC","LAUNCH_DATE":"2021-04-29"},{"EPHEMERIS_TYPE":"0","ELEMENT_SET_NO":"999","PERIAPSIS":"545.637","NORAD_CAT_ID":"48305","MEAN_MOTION":"15.06415138","OBJECT_ID":"2021-036AF","GP_ID":"192179392","ARG_OF_PERICENTER":"88.8220","EPOCH":"2021-12-21T20:40:49.844064","MEAN_ELEMENT_THEORY":"SGP4","SITE":"AFETR","TLE_LINE2":"2 48305  53.0534 159.6766 0002209  88.8220 271.3022 15.06415138 36238","MEAN_ANOMALY":"271.3022","COUNTRY_CODE":"US","CLASSIFICATION_TYPE":"U","SEMIMAJOR_AXIS":"6925.302","FILE":"3246784","ECCENTRICITY":"0.00022090","LAUNCH_DATE":"2021-04-29","TIME_SYSTEM":"UTC","INCLINATION":"53.0534","BSTAR":"0.00021765000000","CENTER_NAME":"EARTH","RA_OF_ASC_NODE":"159.6766","RCS_SIZE":"LARGE","MEAN_MOTION_DOT":"0.00002963","APOAPSIS":"548.697","DECAY_DATE":null,"REV_AT_EPOCH":"3623","OBJECT_NAME":"STARLINK-2519","PERIOD":"95.591","MEAN_MOTION_DDOT":"0.0000000000000","TLE_LINE1":"1 48305U 21036AF  21355.86168801  .00002963  00000-0  21765-3 0  9990","REF_FRAME":"TEME","OBJECT_TYPE":"PAYLOAD"},{"RCS_SIZE":"LARGE","RA_OF_ASC_NODE":"159.7087","CENTER_NAME":"EARTH","APOAPSIS":"548.796","MEAN_MOTION_DOT":"0.00003084","BSTAR":"0.00022579000000","INCLINATION":"53.0545","TIME_SYSTEM":"UTC","LAUNCH_DATE":"2021-04-29","TLE_LINE1":"1 48306U 21036AG  21355.85800723  .00003084  00000-0  22579-3 0  9995","MEAN_MOTION_DDOT":"0.0000000000000","PERIOD":"95.592","OBJECT_TYPE":"PAYLOAD","REF_FRAME":"TEME","DECAY_DATE":null,"OBJECT_NAME":"STARLINK-2523","REV_AT_EPOCH":"3623","MEAN_ELEMENT_THEORY":"SGP4","EPOCH":"2021-12-21T20:35:31.824672","ARG_OF_PERICENTER":"93.1437","GP_ID":"192177641","MEAN_ANOMALY":"266.9818","TLE_LINE2":"2 48306  53.0545 159.7087 0002319  93.1437 266.9818 15.06407630 36230","SITE":"AFETR","ELEMENT_SET_NO":"999","EPHEMERIS_TYPE":"0","OBJECT_ID":"2021-036AG","MEAN_MOTION":"15.06407630","NORAD_CAT_ID":"48306","PERIAPSIS":"545.584","FILE":"3246784","SEMIMAJOR_AXIS":"6925.325","CLASSIFICATION_TYPE":"U","ECCENTRICITY":"0.00023190","COUNTRY_CODE":"US"},{"CENTER_NAME":"EARTH","RA_OF_ASC_NODE":"159.7122","RCS_SIZE":"LARGE","MEAN_MOTION_DOT":"0.00002538","APOAPSIS":"548.732","LAUNCH_DATE":"2021-04-29","TIME_SYSTEM":"UTC","INCLINATION":"53.0536","BSTAR":"0.00018918000000","PERIOD":"95.591","MEAN_MOTION_DDOT":"0.0000000000000","TLE_LINE1":"1 48307U 21036AH  21355.85431903  .00002538  00000-0  18918-3 0  9991","REF_FRAME":"TEME","OBJECT_TYPE":"PAYLOAD","DECAY_DATE":null,"REV_AT_EPOCH":"3623","OBJECT_NAME":"STARLINK-2528","GP_ID":"192177891","ARG_OF_PERICENTER":"91.8868","MEAN_ELEMENT_THEORY":"SGP4","EPOCH":"2021-12-21T20:30:13.164192","TLE_LINE2":"2 48307  53.0536 159.7122 0002238  91.8868 268.2377 15.06410311 36239","SITE":"AFETR","MEAN_ANOMALY":"268.2377","EPHEMERIS_TYPE":"0","ELEMENT_SET_NO":"999","PERIAPSIS":"545.632","NORAD_CAT_ID":"48307","MEAN_MOTION":"15.06410311","OBJECT_ID":"2021-036AH","CLASSIFICATION_TYPE":"U","SEMIMAJOR_AXIS":"6925.317","FILE":"3246784","ECCENTRICITY":"0.00022380","COUNTRY_CODE":"US"},{"OBJECT_ID":"2021-036AJ","MEAN_MOTION":"15.06420377","NORAD_CAT_ID":"48308","PERIAPSIS":"545.427","ELEMENT_SET_NO":"999","EPHEMERIS_TYPE":"0","MEAN_ANOMALY":"268.6312","SITE":"AFETR","TLE_LINE2":"2 48308  53.0543 159.7382 0002489  91.4962 268.6312 15.06420377 36231","EPOCH":"2021-12-21T20:24:54.845856","MEAN_ELEMENT_THEORY":"SGP4","ARG_OF_PERICENTER":"91.4962","GP_ID":"192178640","COUNTRY_CODE":"US","ECCENTRICITY":"0.00024890","FILE":"3246784","SEMIMAJOR_AXIS":"6925.286","CLASSIFICATION_TYPE":"U","BSTAR":"0.00032862000000","INCLINATION":"53.0543","TIME_SYSTEM":"UTC","LAUNCH_DATE":"2021-04-29","APOAPSIS":"548.875","MEAN_MOTION_DOT":"0.00004619","RCS_SIZE":"LARGE","RA_OF_ASC_NODE":"159.7382","CENTER_NAME":"EARTH","OBJECT_NAME":"STARLINK-2532","REV_AT_EPOCH":"3623","DECAY_DATE":null,"OBJECT_TYPE":"PAYLOAD","REF_FRAME":"TEME","TLE_LINE1":"1 48308U 21036AJ  21355.85063479  .00004619  00000-0  32862-3 0  9997","MEAN_MOTION_DDOT":"0.0000000000000","PERIOD":"95.591"},{"COUNTRY_CODE":"US","FILE":"3246784","SEMIMAJOR_AXIS":"6925.319","CLASSIFICATION_TYPE":"U","ECCENTRICITY":"0.00026660","ELEMENT_SET_NO":"999","EPHEMERIS_TYPE":"0","OBJECT_ID":"2021-036AK","MEAN_MOTION":"15.06409714","NORAD_CAT_ID":"48309","PERIAPSIS":"545.337","MEAN_ELEMENT_THEORY":"SGP4","EPOCH":"2021-12-21T20:19:36.397920","ARG_OF_PERICENTER":"96.3624","GP_ID":"192178893","MEAN_ANOMALY":"263.7668","TLE_LINE2":"2 48309  53.0537 159.7606 0002666  96.3624 263.7668 15.06409714 36232","SITE":"AFETR","DECAY_DATE":null,"OBJECT_NAME":"STARLINK-2517","REV_AT_EPOCH":"3623","TLE_LINE1":"1 48309U 21036AK  21355.84694905  .00001965  00000-0  15077-3 0  9991","MEAN_MOTION_DDOT":"0.0000000000000","PERIOD":"95.592","OBJECT_TYPE":"PAYLOAD","REF_FRAME":"TEME","BSTAR":"0.00015077000000","INCLINATION":"53.0537","TIME_SYSTEM":"UTC","LAUNCH_DATE":"2021-04-29","RCS_SIZE":"MEDIUM","RA_OF_ASC_NODE":"159.7606","CENTER_NAME":"EARTH","APOAPSIS":"549.030","MEAN_MOTION_DOT":"0.00001965"},{"REV_AT_EPOCH":"3623","OBJECT_NAME":"STARLINK-2536","DECAY_DATE":null,"REF_FRAME":"TEME","OBJECT_TYPE":"PAYLOAD","TLE_LINE1":"1 48310U 21036AL  21355.84326229  .00000028  00000-0  20829-4 0  9995","PERIOD":"95.592","MEAN_MOTION_DDOT":"0.0000000000000","INCLINATION":"53.0543","BSTAR":"0.00002082900000","LAUNCH_DATE":"2021-04-29","TIME_SYSTEM":"UTC","APOAPSIS":"548.894","MEAN_MOTION_DOT":"0.00000028","RCS_SIZE":"LARGE","CENTER_NAME":"EARTH","RA_OF_ASC_NODE":"159.7588","COUNTRY_CODE":"US","ECCENTRICITY":"0.00024670","SEMIMAJOR_AXIS":"6925.321","FILE":"3246784","CLASSIFICATION_TYPE":"U","MEAN_MOTION":"15.06409090","OBJECT_ID":"2021-036AL","PERIAPSIS":"545.477","NORAD_CAT_ID":"48310","ELEMENT_SET_NO":"999","EPHEMERIS_TYPE":"0","MEAN_ANOMALY":"269.1473","SITE":"AFETR","TLE_LINE2":"2 48310  53.0543 159.7588 0002467  90.9799 269.1473 15.06409090 36233","MEAN_ELEMENT_THEORY":"SGP4","EPOCH":"2021-12-21T20:14:17.861856","GP_ID":"192178141","ARG_OF_PERICENTER":"90.9799"},{"CLASSIFICATION_TYPE":"U","FILE":"3246784","SEMIMAJOR_AXIS":"6925.336","ECCENTRICITY":"0.00027990","COUNTRY_CODE":"US","ARG_OF_PERICENTER":"91.4974","GP_ID":"192178391","EPOCH":"2021-12-21T20:08:59.667936","MEAN_ELEMENT_THEORY":"SGP4","TLE_LINE2":"2 48311  53.0553 159.7919 0002799  91.4974 268.6335 15.06404043 36236","SITE":"AFETR","MEAN_ANOMALY":"268.6335","EPHEMERIS_TYPE":"0","ELEMENT_SET_NO":"999","NORAD_CAT_ID":"48311","PERIAPSIS":"545.263","OBJECT_ID":"2021-036AM","MEAN_MOTION":"15.06404043","MEAN_MOTION_DDOT":"0.0000000000000","PERIOD":"95.592","TLE_LINE1":"1 48311U 21036AM  21355.83957949  .00001922  00000-0  14791-3 0  9998","OBJECT_TYPE":"PAYLOAD","REF_FRAME":"TEME","DECAY_DATE":null,"OBJECT_NAME":"STARLINK-2534","REV_AT_EPOCH":"3623","RA_OF_ASC_NODE":"159.7919","CENTER_NAME":"EARTH","RCS_SIZE":"LARGE","MEAN_MOTION_DOT":"0.00001922","APOAPSIS":"549.140","TIME_SYSTEM":"UTC","LAUNCH_DATE":"2021-04-29","BSTAR":"0.00014791000000","INCLINATION":"53.0553"},{"PERIAPSIS":"545.537","NORAD_CAT_ID":"48312","MEAN_MOTION":"15.06399494","OBJECT_ID":"2021-036AN","EPHEMERIS_TYPE":"0","ELEMENT_SET_NO":"999","TLE_LINE2":"2 48312  53.0536 160.1045 0002423  89.9474 270.1793 15.06399494 36223","SITE":"AFETR","MEAN_ANOMALY":"270.1793","GP_ID":"192179140","ARG_OF_PERICENTER":"89.9474","MEAN_ELEMENT_THEORY":"SGP4","EPOCH":"2021-12-21T18:28:08.353632","COUNTRY_CODE":"US","ECCENTRICITY":"0.00024230","CLASSIFICATION_TYPE":"U","SEMIMAJOR_AXIS":"6925.350","FILE":"3246784","LAUNCH_DATE":"2021-04-29","TIME_SYSTEM":"UTC","INCLINATION":"53.0536","BSTAR":"0.00013515000000","MEAN_MOTION_DOT":"0.00001732","APOAPSIS":"548.893","CENTER_NAME":"EARTH","RA_OF_ASC_NODE":"160.1045","RCS_SIZE":"LARGE","REV_AT_EPOCH":"3622","OBJECT_NAME":"STARLINK-2061","DECAY_DATE":null,"REF_FRAME":"TEME","OBJECT_TYPE":"PAYLOAD","PERIOD":"95.592","MEAN_MOTION_DDOT":"0.0000000000000","TLE_LINE1":"1 48312U 21036AN  21355.76954113  .00001732  00000-0  13515-3 0  9993"}];
